[{"OBJECT_NAME":"JILIN-1 GAOFEN 03D50","OBJECT_ID":"2022-167J","EPOCH":"2026-03-09T22:35:59.947584","MEAN_MOTION":15.32279726,"ECCENTRICITY":0.00065764,"INCLINATION":97.6731,"RA_OF_ASC_NODE":232.9458,"ARG_OF_PERICENTER":101.1473,"MEAN_ANOMALY":259.0507,"EPHEMERIS_TYPE":0,"CLASSIFICATION_TYPE":"U","NORAD_CAT_ID":54690,"ELEMENT_SET_NO":999,"REV_AT_EPOCH":18014,"BSTAR":0.00049467973,"MEAN_MOTION_DOT":0.00015359,"MEAN_MOTION_DDOT":0},{"OBJECT_NAME":"STARLINK-33742","OBJECT_ID":"2025-063D","EPOCH":"2026-03-09T09:03:17.135424","MEAN_MOTION":15.3020348,"ECCENTRICITY":0.00013424,"INCLINATION":53.1595,"RA_OF_ASC_NODE":53.7714,"ARG_OF_PERICENTER":80.6769,"MEAN_ANOMALY":279.4384,"EPHEMERIS_TYPE":0,"CLASSIFICATION_TYPE":"U","NORAD_CAT_ID":63366,"ELEMENT_SET_NO":999,"REV_AT_EPOCH":5466,"BSTAR":0.0012602432,"MEAN_MOTION_DOT":0.00037156,"MEAN_MOTION_DDOT":0}]
